[{"OBJECT_NAME":"ESEO","OBJECT_ID":"2018-099AL","EPOCH":"2026-03-09T15:43:37.559712","MEAN_MOTION":15.03914518,"ECCENTRICITY":0.00110626,"INCLINATION":97.4113,"RA_OF_ASC_NODE":110.2601,"ARG_OF_PERICENTER":317.6,"MEAN_ANOMALY":42.4371,"EPHEMERIS_TYPE":0,"CLASSIFICATION_TYPE":"U","NORAD_CAT_ID":43792,"ELEMENT_SET_NO":999,"REV_AT_EPOCH":39684,"BSTAR":0.00020934561,"MEAN_MOTION_DOT":2.831e-5,"MEAN_MOTION_DDOT":0},{"OBJECT_NAME":"STARLINK-35412","OBJECT_ID":"2025-218G","EPOCH":"2026-03-09T14:52:34.621824","MEAN_MOTION":15.05646955,"ECCENTRICITY":0.0002332,"INCLINATION":97.602,"RA_OF_ASC_NODE":292.9533,"ARG_OF_PERICENTER":89.3705,"MEAN_ANOMALY":270.7789,"EPHEMERIS_TYPE":0,"CLASSIFICATION_TYPE":"U","NORAD_CAT_ID":65797,"ELEMENT_SET_NO":999,"REV_AT_EPOCH":2496,"BSTAR":0.00030089,"MEAN_MOTION_DOT":4.283e-5,"MEAN_MOTION_DDOT":0}]
