ESEO                    
1 43792U 18099AL  26068.65529582  .00002831  00000+0  20935-3 0  9991
2 43792  97.4113 110.2601 0011063 317.6000  42.4371 15.03914518396849
STARLINK-35412          
1 65797U 25218G   26068.61984516  .00004283  00000+0  30089-3 0  9993
2 65797  97.6020 292.9533 0002332  89.3705 270.7789 15.05646955 24962
